QIANFAN-33              
1 61566U 24185Q   25288.58020164  .00000625  00000+0  44251-3 0  9996
2 61566  88.9746  85.2886 0008181 136.2257 223.9569 13.96474341 61048
QIANFAN-34              
1 61567U 24185R   25288.64127898  .00000660  00000+0  42223-3 0  9992
2 61567  88.9725  84.9224 0007200 137.9599 222.2135 14.02226761 61215
QIANFAN-35              
1 61568U 24185S   25288.67277249  .00001216  00000+0  48603-3 0  9998
2 61568  88.9753  83.6913 0008625 111.1500 249.0617 14.27817207 61890
QIANFAN-36              
1 61569U 24185T   25288.57659128  .00000192  00000+0  25960-3 0  9991
2 61569  88.9731  87.1008 0005409 194.6898 165.4100 13.55563931 60040
QIANFAN-37              
1 62238U 24232B   25288.62969686  .00000169  00000+0  24273-3 0  9997
2 62238  89.0017  47.1828 0001174 114.2922 245.8352 13.50971033 91328
QIANFAN-38              
1 62239U 24232C   25288.58030672  .00000163  00000+0  23441-3 0  9997
2 62239  89.0022  47.0996 0014349  10.5573 349.5876 13.50979462 91370
QIANFAN-39              
1 62240U 24232D   25288.57598656  .00000776  00000+0  32344-3 0  9991
2 62240  89.0022  43.9472 0014033 267.8214  92.1372 14.25290770 93101
QIANFAN-40              
1 62241U 24232E   25288.61319542  .00000179  00000+0  25906-3 0  9995
2 62241  89.0052  46.6645 0013628  18.9554 341.2102 13.50979088 91748
