<?xml version="1.0" encoding="UTF-8"?>
<ndm xmlns:xsi="http://www.w3.org/2001/XMLSchema-instance" xsi:noNamespaceSchemaLocation="https://sanaregistry.org/r/ndmxml_unqualified/ndmxml-2.0.0-master-2.0.xsd">
<omm id="CCSDS_OMM_VERS" version="2.0">
<header><CREATION_DATE/><ORIGINATOR/></header><body><segment><metadata><OBJECT_NAME>QIANFAN-33</OBJECT_NAME><OBJECT_ID>2024-185Q</OBJECT_ID><CENTER_NAME>EARTH</CENTER_NAME><REF_FRAME>TEME</REF_FRAME><TIME_SYSTEM>UTC</TIME_SYSTEM><MEAN_ELEMENT_THEORY>SGP4</MEAN_ELEMENT_THEORY></metadata><data><meanElements><EPOCH>2025-10-15T13:55:29.421696</EPOCH><MEAN_MOTION>13.96474341</MEAN_MOTION><ECCENTRICITY>.00081818</ECCENTRICITY><INCLINATION>88.9746</INCLINATION><RA_OF_ASC_NODE>85.2886</RA_OF_ASC_NODE><ARG_OF_PERICENTER>136.2257</ARG_OF_PERICENTER><MEAN_ANOMALY>223.9569</MEAN_ANOMALY></meanElements><tleParameters><EPHEMERIS_TYPE>0</EPHEMERIS_TYPE><CLASSIFICATION_TYPE>U</CLASSIFICATION_TYPE><NORAD_CAT_ID>61566</NORAD_CAT_ID><ELEMENT_SET_NO>999</ELEMENT_SET_NO><REV_AT_EPOCH>6104</REV_AT_EPOCH><BSTAR>.44251133E-3</BSTAR><MEAN_MOTION_DOT>.625E-5</MEAN_MOTION_DOT><MEAN_MOTION_DDOT>0</MEAN_MOTION_DDOT></tleParameters></data></segment></body></omm>
<omm id="CCSDS_OMM_VERS" version="2.0">
<header><CREATION_DATE/><ORIGINATOR/></header><body><segment><metadata><OBJECT_NAME>QIANFAN-34</OBJECT_NAME><OBJECT_ID>2024-185R</OBJECT_ID><CENTER_NAME>EARTH</CENTER_NAME><REF_FRAME>TEME</REF_FRAME><TIME_SYSTEM>UTC</TIME_SYSTEM><MEAN_ELEMENT_THEORY>SGP4</MEAN_ELEMENT_THEORY></metadata><data><meanElements><EPOCH>2025-10-15T15:23:26.503872</EPOCH><MEAN_MOTION>14.02226761</MEAN_MOTION><ECCENTRICITY>.00072004</ECCENTRICITY><INCLINATION>88.9725</INCLINATION><RA_OF_ASC_NODE>84.9224</RA_OF_ASC_NODE><ARG_OF_PERICENTER>137.9599</ARG_OF_PERICENTER><MEAN_ANOMALY>222.2135</MEAN_ANOMALY></meanElements><tleParameters><EPHEMERIS_TYPE>0</EPHEMERIS_TYPE><CLASSIFICATION_TYPE>U</CLASSIFICATION_TYPE><NORAD_CAT_ID>61567</NORAD_CAT_ID><ELEMENT_SET_NO>999</ELEMENT_SET_NO><REV_AT_EPOCH>6121</REV_AT_EPOCH><BSTAR>.42223059E-3</BSTAR><MEAN_MOTION_DOT>.66E-5</MEAN_MOTION_DOT><MEAN_MOTION_DDOT>0</MEAN_MOTION_DDOT></tleParameters></data></segment></body></omm>
<omm id="CCSDS_OMM_VERS" version="2.0">
<header><CREATION_DATE/><ORIGINATOR/></header><body><segment><metadata><OBJECT_NAME>QIANFAN-35</OBJECT_NAME><OBJECT_ID>2024-185S</OBJECT_ID><CENTER_NAME>EARTH</CENTER_NAME><REF_FRAME>TEME</REF_FRAME><TIME_SYSTEM>UTC</TIME_SYSTEM><MEAN_ELEMENT_THEORY>SGP4</MEAN_ELEMENT_THEORY></metadata><data><meanElements><EPOCH>2025-10-15T16:08:47.543136</EPOCH><MEAN_MOTION>14.27817207</MEAN_MOTION><ECCENTRICITY>.00086259</ECCENTRICITY><INCLINATION>88.9753</INCLINATION><RA_OF_ASC_NODE>83.6913</RA_OF_ASC_NODE><ARG_OF_PERICENTER>111.1500</ARG_OF_PERICENTER><MEAN_ANOMALY>249.0617</MEAN_ANOMALY></meanElements><tleParameters><EPHEMERIS_TYPE>0</EPHEMERIS_TYPE><CLASSIFICATION_TYPE>U</CLASSIFICATION_TYPE><NORAD_CAT_ID>61568</NORAD_CAT_ID><ELEMENT_SET_NO>999</ELEMENT_SET_NO><REV_AT_EPOCH>6189</REV_AT_EPOCH><BSTAR>.48603303E-3</BSTAR><MEAN_MOTION_DOT>.1216E-4</MEAN_MOTION_DOT><MEAN_MOTION_DDOT>0</MEAN_MOTION_DDOT></tleParameters></data></segment></body></omm>
<omm id="CCSDS_OMM_VERS" version="2.0">
<header><CREATION_DATE/><ORIGINATOR/></header><body><segment><metadata><OBJECT_NAME>QIANFAN-36</OBJECT_NAME><OBJECT_ID>2024-185T</OBJECT_ID><CENTER_NAME>EARTH</CENTER_NAME><REF_FRAME>TEME</REF_FRAME><TIME_SYSTEM>UTC</TIME_SYSTEM><MEAN_ELEMENT_THEORY>SGP4</MEAN_ELEMENT_THEORY></metadata><data><meanElements><EPOCH>2025-10-15T13:50:17.486592</EPOCH><MEAN_MOTION>13.55563931</MEAN_MOTION><ECCENTRICITY>.00054097</ECCENTRICITY><INCLINATION>88.9731</INCLINATION><RA_OF_ASC_NODE>87.1008</RA_OF_ASC_NODE><ARG_OF_PERICENTER>194.6898</ARG_OF_PERICENTER><MEAN_ANOMALY>165.4100</MEAN_ANOMALY></meanElements><tleParameters><EPHEMERIS_TYPE>0</EPHEMERIS_TYPE><CLASSIFICATION_TYPE>U</CLASSIFICATION_TYPE><NORAD_CAT_ID>61569</NORAD_CAT_ID><ELEMENT_SET_NO>999</ELEMENT_SET_NO><REV_AT_EPOCH>6004</REV_AT_EPOCH><BSTAR>.25959848E-3</BSTAR><MEAN_MOTION_DOT>.192E-5</MEAN_MOTION_DOT><MEAN_MOTION_DDOT>0</MEAN_MOTION_DDOT></tleParameters></data></segment></body></omm>
<omm id="CCSDS_OMM_VERS" version="2.0">
<header><CREATION_DATE/><ORIGINATOR/></header><body><segment><metadata><OBJECT_NAME>QIANFAN-37</OBJECT_NAME><OBJECT_ID>2024-232B</OBJECT_ID><CENTER_NAME>EARTH</CENTER_NAME><REF_FRAME>TEME</REF_FRAME><TIME_SYSTEM>UTC</TIME_SYSTEM><MEAN_ELEMENT_THEORY>SGP4</MEAN_ELEMENT_THEORY></metadata><data><meanElements><EPOCH>2025-10-15T15:06:45.808704</EPOCH><MEAN_MOTION>13.50971033</MEAN_MOTION><ECCENTRICITY>.00011745</ECCENTRICITY><INCLINATION>89.0017</INCLINATION><RA_OF_ASC_NODE>47.1828</RA_OF_ASC_NODE><ARG_OF_PERICENTER>114.2922</ARG_OF_PERICENTER><MEAN_ANOMALY>245.8352</MEAN_ANOMALY></meanElements><tleParameters><EPHEMERIS_TYPE>0</EPHEMERIS_TYPE><CLASSIFICATION_TYPE>U</CLASSIFICATION_TYPE><NORAD_CAT_ID>62238</NORAD_CAT_ID><ELEMENT_SET_NO>999</ELEMENT_SET_NO><REV_AT_EPOCH>9132</REV_AT_EPOCH><BSTAR>.24272738E-3</BSTAR><MEAN_MOTION_DOT>.169E-5</MEAN_MOTION_DOT><MEAN_MOTION_DDOT>0</MEAN_MOTION_DDOT></tleParameters></data></segment></body></omm>
<omm id="CCSDS_OMM_VERS" version="2.0">
<header><CREATION_DATE/><ORIGINATOR/></header><body><segment><metadata><OBJECT_NAME>QIANFAN-38</OBJECT_NAME><OBJECT_ID>2024-232C</OBJECT_ID><CENTER_NAME>EARTH</CENTER_NAME><REF_FRAME>TEME</REF_FRAME><TIME_SYSTEM>UTC</TIME_SYSTEM><MEAN_ELEMENT_THEORY>SGP4</MEAN_ELEMENT_THEORY></metadata><data><meanElements><EPOCH>2025-10-15T13:55:38.500608</EPOCH><MEAN_MOTION>13.50979462</MEAN_MOTION><ECCENTRICITY>.00143497</ECCENTRICITY><INCLINATION>89.0022</INCLINATION><RA_OF_ASC_NODE>47.0996</RA_OF_ASC_NODE><ARG_OF_PERICENTER>10.5573</ARG_OF_PERICENTER><MEAN_ANOMALY>349.5876</MEAN_ANOMALY></meanElements><tleParameters><EPHEMERIS_TYPE>0</EPHEMERIS_TYPE><CLASSIFICATION_TYPE>U</CLASSIFICATION_TYPE><NORAD_CAT_ID>62239</NORAD_CAT_ID><ELEMENT_SET_NO>999</ELEMENT_SET_NO><REV_AT_EPOCH>9137</REV_AT_EPOCH><BSTAR>.23440741E-3</BSTAR><MEAN_MOTION_DOT>.163E-5</MEAN_MOTION_DOT><MEAN_MOTION_DDOT>0</MEAN_MOTION_DDOT></tleParameters></data></segment></body></omm>
<omm id="CCSDS_OMM_VERS" version="2.0">
<header><CREATION_DATE/><ORIGINATOR/></header><body><segment><metadata><OBJECT_NAME>QIANFAN-39</OBJECT_NAME><OBJECT_ID>2024-232D</OBJECT_ID><CENTER_NAME>EARTH</CENTER_NAME><REF_FRAME>TEME</REF_FRAME><TIME_SYSTEM>UTC</TIME_SYSTEM><MEAN_ELEMENT_THEORY>SGP4</MEAN_ELEMENT_THEORY></metadata><data><meanElements><EPOCH>2025-10-15T13:49:25.238784</EPOCH><MEAN_MOTION>14.25290770</MEAN_MOTION><ECCENTRICITY>.00140333</ECCENTRICITY><INCLINATION>89.0022</INCLINATION><RA_OF_ASC_NODE>43.9472</RA_OF_ASC_NODE><ARG_OF_PERICENTER>267.8214</ARG_OF_PERICENTER><MEAN_ANOMALY>92.1372</MEAN_ANOMALY></meanElements><tleParameters><EPHEMERIS_TYPE>0</EPHEMERIS_TYPE><CLASSIFICATION_TYPE>U</CLASSIFICATION_TYPE><NORAD_CAT_ID>62240</NORAD_CAT_ID><ELEMENT_SET_NO>999</ELEMENT_SET_NO><REV_AT_EPOCH>9310</REV_AT_EPOCH><BSTAR>.32344034E-3</BSTAR><MEAN_MOTION_DOT>.776E-5</MEAN_MOTION_DOT><MEAN_MOTION_DDOT>0</MEAN_MOTION_DDOT></tleParameters></data></segment></body></omm>
<omm id="CCSDS_OMM_VERS" version="2.0">
<header><CREATION_DATE/><ORIGINATOR/></header><body><segment><metadata><OBJECT_NAME>QIANFAN-40</OBJECT_NAME><OBJECT_ID>2024-232E</OBJECT_ID><CENTER_NAME>EARTH</CENTER_NAME><REF_FRAME>TEME</REF_FRAME><TIME_SYSTEM>UTC</TIME_SYSTEM><MEAN_ELEMENT_THEORY>SGP4</MEAN_ELEMENT_THEORY></metadata><data><meanElements><EPOCH>2025-10-15T14:43:00.084288</EPOCH><MEAN_MOTION>13.50979088</MEAN_MOTION><ECCENTRICITY>.00136289</ECCENTRICITY><INCLINATION>89.0052</INCLINATION><RA_OF_ASC_NODE>46.6645</RA_OF_ASC_NODE><ARG_OF_PERICENTER>18.9554</ARG_OF_PERICENTER><MEAN_ANOMALY>341.2102</MEAN_ANOMALY></meanElements><tleParameters><EPHEMERIS_TYPE>0</EPHEMERIS_TYPE><CLASSIFICATION_TYPE>U</CLASSIFICATION_TYPE><NORAD_CAT_ID>62241</NORAD_CAT_ID><ELEMENT_SET_NO>999</ELEMENT_SET_NO><REV_AT_EPOCH>9174</REV_AT_EPOCH><BSTAR>.25906347E-3</BSTAR><MEAN_MOTION_DOT>.179E-5</MEAN_MOTION_DOT><MEAN_MOTION_DDOT>0</MEAN_MOTION_DDOT></tleParameters></data></segment></body></omm>

</ndm>
